[{"OBJECT_NAME":"STARLINK-32578","OBJECT_ID":"2024-210W","EPOCH":"2026-03-08T07:48:49.555584","MEAN_MOTION":15.27606556,"ECCENTRICITY":7.266e-5,"INCLINATION":42.9997,"RA_OF_ASC_NODE":187.3287,"ARG_OF_PERICENTER":232.2096,"MEAN_ANOMALY":127.869,"EPHEMERIS_TYPE":0,"CLASSIFICATION_TYPE":"U","NORAD_CAT_ID":61979,"ELEMENT_SET_NO":999,"REV_AT_EPOCH":7471,"BSTAR":0.0015408954,"MEAN_MOTION_DOT":0.00042418,"MEAN_MOTION_DDOT":0},{"OBJECT_NAME":"OBJECT F","OBJECT_ID":"2021-022F","EPOCH":"2026-03-09T23:37:37.165152","MEAN_MOTION":15.31317672,"ECCENTRICITY":0.00120882,"INCLINATION":97.3982,"RA_OF_ASC_NODE":329.8375,"ARG_OF_PERICENTER":85.9268,"MEAN_ANOMALY":274.3355,"EPHEMERIS_TYPE":0,"CLASSIFICATION_TYPE":"U","NORAD_CAT_ID":47937,"ELEMENT_SET_NO":999,"REV_AT_EPOCH":27452,"BSTAR":0.00038690553,"MEAN_MOTION_DOT":0.00011656,"MEAN_MOTION_DDOT":0}]
